[{"OBJECT_NAME":"SHIYAN-6 01 (SY-6 01)","OBJECT_ID":"2018-094B","EPOCH":"2026-03-09T23:04:36.967872","MEAN_MOTION":15.28649156,"ECCENTRICITY":0.00144834,"INCLINATION":97.3669,"RA_OF_ASC_NODE":84.0964,"ARG_OF_PERICENTER":135.6758,"MEAN_ANOMALY":224.5644,"EPHEMERIS_TYPE":0,"CLASSIFICATION_TYPE":"U","NORAD_CAT_ID":43711,"ELEMENT_SET_NO":999,"REV_AT_EPOCH":40632,"BSTAR":0.00024768444,"MEAN_MOTION_DOT":6.847e-5,"MEAN_MOTION_DDOT":0},{"OBJECT_NAME":"STARLINK-31292","OBJECT_ID":"2024-041H","EPOCH":"2026-03-08T16:52:06.264192","MEAN_MOTION":15.27564444,"ECCENTRICITY":6.26e-5,"INCLINATION":43.0018,"RA_OF_ASC_NODE":316.0203,"ARG_OF_PERICENTER":271.5751,"MEAN_ANOMALY":88.5029,"EPHEMERIS_TYPE":0,"CLASSIFICATION_TYPE":"U","NORAD_CAT_ID":59081,"ELEMENT_SET_NO":999,"REV_AT_EPOCH":11411,"BSTAR":0.00016992463,"MEAN_MOTION_DOT":4.415e-5,"MEAN_MOTION_DDOT":0}]
